{"fetched_at":"2026-07-21T17:53:26.713Z","source":"https://celestrak.org/NORAD/elements/gp.php?NAME=GHGSAT&FORMAT=JSON","constellation":"ghgsat","records":[{"OBJECT_NAME":"GHGSAT-C1","OBJECT_ID":"2020-061G","EPOCH":"2026-07-21T04:55:40.227744","CLASSIFICATION_TYPE":"U","MEAN_MOTION":15.73785029,"ECCENTRICITY":0.00015278,"INCLINATION":97.208,"RA_OF_ASC_NODE":288.5077,"ARG_OF_PERICENTER":168.391,"MEAN_ANOMALY":191.739,"EPHEMERIS_TYPE":0,"NORAD_CAT_ID":46278,"ELEMENT_SET_NO":999,"REV_AT_EPOCH":32882,"BSTAR":0.00024901921,"MEAN_MOTION_DOT":0.00034984,"MEAN_MOTION_DDOT":0},{"OBJECT_NAME":"GHGSAT-C2","OBJECT_ID":"2021-006DA","EPOCH":"2026-07-21T02:41:25.954944","CLASSIFICATION_TYPE":"U","MEAN_MOTION":15.38152091,"ECCENTRICITY":0.00063963,"INCLINATION":97.2127,"RA_OF_ASC_NODE":248.7995,"ARG_OF_PERICENTER":59.5379,"MEAN_ANOMALY":300.6497,"EPHEMERIS_TYPE":0,"NORAD_CAT_ID":47509,"ELEMENT_SET_NO":999,"REV_AT_EPOCH":30506,"BSTAR":0.00012473878,"MEAN_MOTION_DOT":0.00004607,"MEAN_MOTION_DDOT":0},{"OBJECT_NAME":"GHGSAT-C3","OBJECT_ID":"2022-057F","EPOCH":"2026-07-21T06:39:25.302816","CLASSIFICATION_TYPE":"U","MEAN_MOTION":15.34726451,"ECCENTRICITY":0.00057629,"INCLINATION":97.664,"RA_OF_ASC_NODE":349.2289,"ARG_OF_PERICENTER":15.2859,"MEAN_ANOMALY":344.8557,"EPHEMERIS_TYPE":0,"NORAD_CAT_ID":52737,"ELEMENT_SET_NO":999,"REV_AT_EPOCH":23076,"BSTAR":0.00014926236,"MEAN_MOTION_DOT":0.0000494,"MEAN_MOTION_DDOT":0},{"OBJECT_NAME":"GHGSAT-C5","OBJECT_ID":"2022-057N","EPOCH":"2026-07-21T06:02:19.239648","CLASSIFICATION_TYPE":"U","MEAN_MOTION":15.34702162,"ECCENTRICITY":0.00064757,"INCLINATION":97.6726,"RA_OF_ASC_NODE":350.8152,"ARG_OF_PERICENTER":12.1497,"MEAN_ANOMALY":347.99,"EPHEMERIS_TYPE":0,"NORAD_CAT_ID":52744,"ELEMENT_SET_NO":999,"REV_AT_EPOCH":23076,"BSTAR":0.00014754731,"MEAN_MOTION_DOT":0.00004879,"MEAN_MOTION_DDOT":0},{"OBJECT_NAME":"GHGSAT-C4","OBJECT_ID":"2022-057Q","EPOCH":"2026-07-21T07:09:20.411424","CLASSIFICATION_TYPE":"U","MEAN_MOTION":15.34713596,"ECCENTRICITY":0.00055797,"INCLINATION":97.6566,"RA_OF_ASC_NODE":348.0472,"ARG_OF_PERICENTER":357.5564,"MEAN_ANOMALY":2.565,"EPHEMERIS_TYPE":0,"NORAD_CAT_ID":52746,"ELEMENT_SET_NO":999,"REV_AT_EPOCH":23077,"BSTAR":0.00015087175,"MEAN_MOTION_DOT":0.00004992,"MEAN_MOTION_DDOT":0},{"OBJECT_NAME":"GHGSAT-C8","OBJECT_ID":"2023-054J","EPOCH":"2026-07-21T05:40:15.524256","CLASSIFICATION_TYPE":"U","MEAN_MOTION":15.53890988,"ECCENTRICITY":0.00020213,"INCLINATION":97.2944,"RA_OF_ASC_NODE":112.058,"ARG_OF_PERICENTER":335.6682,"MEAN_ANOMALY":24.4476,"EPHEMERIS_TYPE":0,"NORAD_CAT_ID":56186,"ELEMENT_SET_NO":999,"REV_AT_EPOCH":18372,"BSTAR":0.00019754864,"MEAN_MOTION_DOT":0.00012625,"MEAN_MOTION_DDOT":0},{"OBJECT_NAME":"GHGSAT-C6","OBJECT_ID":"2023-054AC","EPOCH":"2026-07-21T06:24:29.219040","CLASSIFICATION_TYPE":"U","MEAN_MOTION":15.53865748,"ECCENTRICITY":0.00031544,"INCLINATION":97.3005,"RA_OF_ASC_NODE":112.7974,"ARG_OF_PERICENTER":268.9735,"MEAN_ANOMALY":91.1157,"EPHEMERIS_TYPE":0,"NORAD_CAT_ID":56204,"ELEMENT_SET_NO":999,"REV_AT_EPOCH":18374,"BSTAR":0.00018098556,"MEAN_MOTION_DOT":0.00011547,"MEAN_MOTION_DDOT":0},{"OBJECT_NAME":"GHGSAT-C7","OBJECT_ID":"2023-054AH","EPOCH":"2026-07-21T06:41:13.706304","CLASSIFICATION_TYPE":"U","MEAN_MOTION":15.50534732,"ECCENTRICITY":0.00048136,"INCLINATION":97.2957,"RA_OF_ASC_NODE":111.0919,"ARG_OF_PERICENTER":273.2197,"MEAN_ANOMALY":86.8505,"EPHEMERIS_TYPE":0,"NORAD_CAT_ID":56209,"ELEMENT_SET_NO":999,"REV_AT_EPOCH":18367,"BSTAR":0.00018171208,"MEAN_MOTION_DOT":0.00010286,"MEAN_MOTION_DDOT":0},{"OBJECT_NAME":"GHGSAT-C12","OBJECT_ID":"2025-135B","EPOCH":"2026-07-21T06:35:11.914080","CLASSIFICATION_TYPE":"U","MEAN_MOTION":15.20470533,"ECCENTRICITY":0.00061893,"INCLINATION":97.4773,"RA_OF_ASC_NODE":316.7883,"ARG_OF_PERICENTER":64.651,"MEAN_ANOMALY":295.5366,"EPHEMERIS_TYPE":0,"NORAD_CAT_ID":64529,"ELEMENT_SET_NO":999,"REV_AT_EPOCH":6000,"BSTAR":0.00010824549,"MEAN_MOTION_DOT":0.00002295,"MEAN_MOTION_DDOT":0},{"OBJECT_NAME":"GHGSAT-C13","OBJECT_ID":"2025-135W","EPOCH":"2026-07-21T06:11:59.216928","CLASSIFICATION_TYPE":"U","MEAN_MOTION":15.21443309,"ECCENTRICITY":0.00015862,"INCLINATION":97.48,"RA_OF_ASC_NODE":317.3991,"ARG_OF_PERICENTER":63.21,"MEAN_ANOMALY":296.9298,"EPHEMERIS_TYPE":0,"NORAD_CAT_ID":64548,"ELEMENT_SET_NO":999,"REV_AT_EPOCH":6003,"BSTAR":0.00019862434,"MEAN_MOTION_DOT":0.00004391,"MEAN_MOTION_DDOT":0}]}
