GHGSAT-C1               
1 46278U 20061G   26202.20532671  .00034984  00000+0  24902-3 0  9991
2 46278  97.2080 288.5077 0001527 168.3910 191.7390 15.73785029328825
GHGSAT-C2               
1 47509U 21006DA  26202.11210596  .00004607  00000+0  12474-3 0  9998
2 47509  97.2127 248.7995 0006396  59.5379 300.6497 15.38152091305069
GHGSAT-C3               
1 52737U 22057F   26202.27737619  .00004940  00000+0  14926-3 0  9995
2 52737  97.6640 349.2289 0005762  15.2859 344.8557 15.34726451230767
GHGSAT-C5               
1 52744U 22057N   26202.25161157  .00004879  00000+0  14755-3 0  9990
2 52744  97.6726 350.8152 0006475  12.1497 347.9900 15.34702162230762
GHGSAT-C4               
1 52746U 22057Q   26202.29815291  .00004992  00000+0  15087-3 0  9996
2 52746  97.6566 348.0472 0005579 357.5564   2.5650 15.34713596230775
GHGSAT-C8               
1 56186U 23054J   26202.23629079  .00012625  00000+0  19755-3 0  9995
2 56186  97.2944 112.0580 0002021 335.6682  24.4476 15.53890988183722
GHGSAT-C6               
1 56204U 23054AC  26202.26700485  .00011547  00000+0  18099-3 0  9992
2 56204  97.3005 112.7974 0003154 268.9735  91.1157 15.53865748183746
GHGSAT-C7               
1 56209U 23054AH  26202.27863086  .00010286  00000+0  18171-3 0  9995
2 56209  97.2957 111.0919 0004813 273.2197  86.8505 15.50534732183674
GHGSAT-C12              
1 64529U 25135B   26202.27444345  .00002295  00000+0  10825-3 0  9993
2 64529  97.4773 316.7883 0006189  64.6510 295.5366 15.20470533 60009
GHGSAT-C13              
1 64548U 25135W   26202.25832427  .00004391  00000+0  19862-3 0  9993
2 64548  97.4800 317.3991 0001586  63.2100 296.9298 15.21443309 60038
